[{"OBJECT_NAME":"KUIPER-00090","OBJECT_ID":"2025-151V","EPOCH":"2026-03-09T21:15:17.323488","MEAN_MOTION":14.7992851,"ECCENTRICITY":6.399e-5,"INCLINATION":51.8979,"RA_OF_ASC_NODE":277.2553,"ARG_OF_PERICENTER":106.9589,"MEAN_ANOMALY":253.1443,"EPHEMERIS_TYPE":0,"CLASSIFICATION_TYPE":"U","NORAD_CAT_ID":64835,"ELEMENT_SET_NO":999,"REV_AT_EPOCH":3564,"BSTAR":9.343077e-6,"MEAN_MOTION_DOT":-1.5e-6,"MEAN_MOTION_DDOT":0},{"OBJECT_NAME":"MKA-PN 2 (RELEC)","OBJECT_ID":"2014-037B","EPOCH":"2026-03-09T21:37:21.565056","MEAN_MOTION":14.55527734,"ECCENTRICITY":0.01309744,"INCLINATION":98.0617,"RA_OF_ASC_NODE":50.1253,"ARG_OF_PERICENTER":18.0245,"MEAN_ANOMALY":342.5533,"EPHEMERIS_TYPE":0,"CLASSIFICATION_TYPE":"U","NORAD_CAT_ID":40070,"ELEMENT_SET_NO":999,"REV_AT_EPOCH":61864,"BSTAR":0.00028946712,"MEAN_MOTION_DOT":1.365e-5,"MEAN_MOTION_DDOT":0}]
